     2.100          NAVIGATION                              RINEX VERSION / TYPE
fic2rin                                 04/19/2016 00:31:40 PGM / RUN BY / DATE
                                                            END OF HEADER
 2 16  4 18 11 59 44.0  .596458557993D-03 -.193267624127D-11  .000000000000D+00
     .130000000000D+02 -.517500000000D+02  .532950770967D-08  .102110184197D+01
    -.280328094959D-05  .156348577002D-01  .489316880703D-05  .515375538254D+04
     .129584000000D+06 -.204890966415D-06 -.157648732975D+01  .391155481339D-07
     .942500069882D+00  .276281250000D+03 -.212941538286D+01 -.876893668998D-08
    -.290369237901D-09  .100000000000D+01  .189300000000D+04  .000000000000D+00
     .240000000000D+01  .000000000000D+00 -.200234353542D-07  .130000000000D+02
     .122406000000D+06  .400000000000D+01
 7 16  4 18 11 59 44.0  .459442846477D-03 -.204636307899D-11  .000000000000D+00
     .320000000000D+02 -.492812500000D+02  .472198240381D-08 -.940001332657D-01
    -.270269811153D-05  .927215034608D-02  .497512519360D-05  .515365373993D+04
     .129584000000D+06  .707805156708D-07  .162747364114D+01  .875443220139D-07
     .966478120825D+00  .283187500000D+03 -.268253203098D+01 -.844356599413D-08
    -.534665128092D-09  .100000000000D+01  .189300000000D+04  .000000000000D+00
     .240000000000D+01  .000000000000D+00 -.111758708954D-07  .320000000000D+02
     .122406000000D+06  .400000000000D+01
14 16  4 18 11 59 44.0 -.902917236090D-05 -.216004991671D-11  .000000000000D+00
     .210000000000D+02  .627187500000D+02  .469412410054D-08  .263279070091D+01
     .316463410854D-05  .848397170193D-02  .539794564247D-05  .515400004578D+04
     .129584000000D+06  .447034835815D-07  .632420214200D+00 -.130385160446D-06
     .964404160881D+00  .273625000000D+03 -.196475308794D+01 -.809212278368D-08
     .185007706314D-09  .100000000000D+01  .189300000000D+04  .000000000000D+00
     .240000000000D+01  .000000000000D+00 -.931322574615D-08  .210000000000D+02
     .122406000000D+06  .400000000000D+01
24 16  4 18 11 59 44.0 -.156969763339D-04 -.568434188608D-12  .000000000000D+00
     .430000000000D+02 -.429687500000D+02  .509449792057D-08  .828747245129D+00
    -.207684934139D-05  .439973408356D-02  .453554093838D-05  .515362221336D+04
     .129584000000D+06  .745058059692D-08  .158094205574D+01  .409781932831D-07
     .949573995626D+00  .282937500000D+03  .413909512535D+00 -.853142679674D-08
    -.442875590403D-09  .100000000000D+01  .189300000000D+04  .000000000000D+00
     .240000000000D+01  .000000000000D+00  .232830643654D-08  .430000000000D+02
     .122406000000D+06  .400000000000D+01
 1 16  4 18 12  0  0.0  .177016481757D-04  .113686837722D-11  .000000000000D+00
     .680000000000D+02 -.597812500000D+02  .476984154019D-08  .638394647288D+00
    -.317580997944D-05  .531086174306D-02  .547803938389D-05  .515364604187D+04
     .129600000000D+06  .335276126862D-07 -.153179560228D+01  .931322574615D-07
     .963747660301D+00  .277093750000D+03  .450007877800D+00 -.834606193269D-08
    -.273939982128D-09  .100000000000D+01  .189300000000D+04  .000000000000D+00
     .240000000000D+01  .000000000000D+00  .512227416039D-08  .680000000000D+02
     .122406000000D+06  .400000000000D+01
 3 16  4 18 12  0  0.0 -.487728975713D-04 -.409272615798D-11  .000000000000D+00
     .330000000000D+02 -.771875000000D+01  .447947230229D-08  .235385798619D+01
    -.357627868652D-06  .229902449064D-03  .124890357256D-04  .515372993660D+04
     .129600000000D+06  .111758708954D-07 -.490294927163D+00 -.186264514923D-08
     .959578896758D+00  .140375000000D+03 -.237866684587D+01 -.789390024120D-08
     .150006248362D-10  .100000000000D+01  .189300000000D+04  .000000000000D+00
     .240000000000D+01  .000000000000D+00  .186264514923D-08  .330000000000D+02
     .122406000000D+06  .400000000000D+01
 5 16  4 18 12  0  0.0 -.127948354930D-03  .318323145621D-11  .000000000000D+00
     .910000000000D+02 -.144687500000D+02  .477412743300D-08 -.275368694001D+01
    -.840052962303D-06  .458719918970D-02  .115819275379D-04  .515377715111D+04
     .129600000000D+06 -.428408384323D-07 -.501666802356D+00 -.113621354103D-06
     .946654957647D+00  .151156250000D+03  .460365484093D+00 -.797783230874D-08
    -.139291516336D-10  .100000000000D+01  .189300000000D+04  .000000000000D+00
     .240000000000D+01  .000000000000D+00 -.107102096081D-07  .910000000000D+02
     .122406000000D+06  .400000000000D+01
 6 16  4 18 12  0  0.0  .177525449544D-03  .568434188608D-11  .000000000000D+00
     .260000000000D+02 -.623437500000D+02  .469519557374D-08  .105329327970D+01
    -.312551856041D-05  .439492985606D-03  .503845512867D-05  .515367230797D+04
     .129600000000D+06  .149011611938D-07 -.154023909730D+01 -.204890966415D-07
     .963582590477D+00  .279468750000D+03 -.151635597219D+01 -.828748806429D-08
    -.184293390845D-09  .100000000000D+01  .189300000000D+04  .000000000000D+00
     .240000000000D+01  .000000000000D+00  .419095158577D-08  .260000000000D+02
     .122406000000D+06  .400000000000D+01
 8 16  4 18 12  0  0.0 -.318549573421D-04 -.147792889038D-11  .000000000000D+00
     .310000000000D+02  .552812500000D+02  .459769151231D-08 -.256875563130D+01
     .290013849735D-05  .181468133815D-02  .585988163948D-05  .515367604637D+04
     .129600000000D+06  .540167093277D-07 -.259214716620D+01 -.558793544769D-08
     .962913560003D+00  .266031250000D+03 -.118443547226D+01 -.823248577322D-08
     .462519265784D-09  .100000000000D+01  .189300000000D+04  .000000000000D+00
     .240000000000D+01  .000000000000D+00  .465661287308D-08  .310000000000D+02
     .122406000000D+06  .400000000000D+01
 9 16  4 18 12  0  0.0  .112270005047D-03  .738964445191D-11  .000000000000D+00
     .530000000000D+02  .721875000000D+02  .498949354672D-08  .254974290865D+01
     .392459332943D-05  .623489264399D-03  .621937215328D-05  .515359850502D+04
     .129600000000D+06  .819563865662D-07  .549097953642D+00 -.409781932831D-07
     .955546254817D+00  .255812500000D+03  .210375047765D+01 -.838177770611D-08
     .314298806093D-09  .100000000000D+01  .189300000000D+04  .000000000000D+00
     .240000000000D+01  .000000000000D+00  .139698386192D-08  .530000000000D+02
     .122406000000D+06  .400000000000D+01
10 16  4 18 12  0  0.0 -.109802931547D-05 -.954969436862D-11  .000000000000D+00
     .430000000000D+02 -.325000000000D+01  .444089926699D-08 -.167334901562D+01
    -.288709998131D-06  .138984317891D-02  .114161521196D-04  .515368861580D+04
     .129600000000D+06  .204890966415D-07 -.494335618080D+00  .149011611938D-07
     .959824400745D+00  .158062500000D+03 -.275606132189D+01 -.789961476495D-08
     .189293599124D-10  .100000000000D+01  .189300000000D+04  .000000000000D+00
     .240000000000D+01  .000000000000D+00  .232830643654D-08  .430000000000D+02
     .122406000000D+06  .400000000000D+01
11 16  4 18 12  0  0.0 -.641599297523D-03 -.306954461848D-11  .000000000000D+00
     .100000000000D+02 -.198125000000D+02  .651098549439D-08  .273716449160D-01
    -.113621354103D-05  .162810877664D-01  .333413481712D-05  .515365329170D+04
     .129600000000D+06 -.284984707832D-06 -.190620633253D+01  .335276126862D-07
     .895914659333D+00  .282468750000D+03  .151507193534D+01 -.951289625031D-08
     .253581991279D-10  .100000000000D+01  .189300000000D+04  .000000000000D+00
     .240000000000D+01  .000000000000D+00 -.121071934700D-07  .100000000000D+02
     .122406000000D+06  .400000000000D+01
12 16  4 18 12  0  0.0  .376735348254D-03  .136424205266D-11  .000000000000D+00
     .103000000000D+03 -.453125000000D+01  .359764985656D-08 -.592386218944D+00
    -.257045030594D-06  .608885008842D-02  .108424574137D-04  .515375370026D+04
     .129600000000D+06  .689178705215D-07  .270286114876D+01  .931322574615D-07
     .990553271491D+00  .186343750000D+03  .716011288881D+00 -.765210445515D-08
    -.821462788651D-10  .100000000000D+01  .189300000000D+04  .000000000000D+00
     .340000000000D+01  .000000000000D+00 -.125728547573D-07  .103000000000D+03
     .122406000000D+06  .400000000000D+01
13 16  4 18 12  0  0.0 -.117672607303D-04 -.272848410532D-11  .000000000000D+00
     .390000000000D+02  .636250000000D+02  .466626579727D-08  .846930250387D+00
     .321306288242D-05  .451745220926D-02  .555813312531D-05  .515367749596D+04
     .129600000000D+06 -.670552253723D-07  .669215782815D+00 -.689178705215D-07
     .971885597085D+00  .278187500000D+03  .199278603181D+01 -.820677041636D-08
     .272868508926D-09  .100000000000D+01  .189300000000D+04  .000000000000D+00
     .240000000000D+01  .000000000000D+00 -.111758708954D-07  .390000000000D+02
     .122406000000D+06  .400000000000D+01
15 16  4 18 12  0  0.0 -.307009089738D-03 -.170530256582D-11  .000000000000D+00
     .120000000000D+02  .715000000000D+02  .552273004387D-08  .189553292026D+01
     .379234552383D-05  .809976132587D-02  .659562647343D-05  .515357542801D+04
     .129600000000D+06 -.225380063057D-06  .497496101910D+00  .149011611938D-06
     .931319999342D+00  .239625000000D+03  .480613800523D+00 -.860428697452D-08
     .282511767749D-09  .100000000000D+01  .189300000000D+04  .000000000000D+00
     .240000000000D+01  .000000000000D+00 -.107102096081D-07  .120000000000D+02
     .122406000000D+06  .400000000000D+01
16 16  4 18 12  0  0.0 -.237030908465D-04  .272848410532D-11  .000000000000D+00
     .850000000000D+02  .815625000000D+01  .340621331103D-08 -.263362031151D+01
     .340864062309D-06  .875269365497D-02  .120252370834D-04  .515375020981D+04
     .129600000000D+06 -.279396772385D-07  .272161886432D+01 -.465661287308D-07
     .991076915703D+00  .164406250000D+03  .362350294624D+00 -.743459539503D-08
     .467876631797D-10  .100000000000D+01  .189300000000D+04  .000000000000D+00
     .240000000000D+01  .000000000000D+00 -.107102096081D-07  .850000000000D+02
     .122406000000D+06  .400000000000D+01
